TDRS 3                  
1 19548U 88091B   22299.50489330 -.00000291  00000+0  00000+0 0  9990
2 19548  13.6215 350.2935 0036713 325.9815 211.2021  1.00263572112039
HST                     
1 20580U 90037B   22299.62640049  .00002368  00000+0  12705-3 0  9995
2 20580  28.4714  19.3211 0002560  21.8535  91.7451 15.11120938586071
TDRS 5                  
1 21639U 91054B   22299.67979123  .00000094  00000+0  00000+0 0  9999
2 21639  14.2290   3.6159 0022546 355.0187 113.8017  1.00263068114387
TDRS 6                  
1 22314U 93003B   22300.46510306 -.00000286  00000+0  00000+0 0  9994
2 22314  14.1405   6.8675 0009559 145.7233   4.8274  1.00275984109050
TDRS 7                  
1 23613U 95035B   22299.69216341 -.00000193  00000+0  00000+0 0  9995
2 23613  13.9287 357.5728 0024355  57.4882 314.0272  1.00270845 99922
ISS (ZARYA)             
1 25544U 98067A   22300.50088523  .00010792  00000+0  20048-3 0  9993
2 25544  51.6438  41.0966 0005934   9.5876  93.6999 15.49460720365705
LANDSAT 7               
1 25682U 99020A   22300.44630530  .00000307  00000+0  73334-4 0  9998
2 25682  97.9647 343.4407 0001648  79.8891 280.2507 14.59825542251820
TERRA                   
1 25994U 99068A   22300.38537642  .00000358  00000+0  85996-4 0  9992
2 25994  98.1245   9.2256 0002844  86.1367  44.2939 14.58891553215832
TDRS 8                  
1 26388U 00034A   22300.32148771 -.00000219  00000+0  00000+0 0  9995
2 26388  10.5750  41.6289 0017301 337.7232 221.0799  1.00265059 81845
TIMED                   
1 26998U 01055B   22300.48854296  .00000987  00000+0  10912-3 0  9997
2 26998  74.0743  16.5648 0002200 257.4943 102.5993 14.88896340132791
TDRS 9                  
1 27389U 02011A   22299.78916670 -.00000273  00000+0  00000+0 0  9992
2 27389   9.2980  59.6040 0023524 293.7572 263.6368  1.00274727 77114
AQUA                    
1 27424U 02022A   22300.46745896  .00000658  00000+0  15504-3 0  9997
2 27424  98.2591 241.1771 0001264 105.3074  31.9876 14.57460819 89456
TDRS 10                 
1 27566U 02055A   22299.55233032  .00000102  00000+0  00000+0 0  9996
2 27566   8.4418  49.2096 0004011 333.4186  40.0237  1.00269423 72908
SORCE                   
1 27651U 03004A   22300.43443567  .00001771  00000+0  19228-3 0  9991
2 27651  39.9947 200.3799 0023574 318.3572  41.5423 14.90293622 72785
AURA                    
1 28376U 04026A   22300.13571393  .00000647  00000+0  15367-3 0  9998
2 28376  98.2211 241.6390 0001162  86.8690 273.2641 14.57088915972442
SWIFT                   
1 28485U 04047A   22300.19168639  .00004140  00000+0  23671-3 0  9992
2 28485  20.5559 105.0587 0010344 167.1709 192.8989 15.07299719983527
THEMIS A                
1 30580U 07004A   22299.80285715 -.00000254  00000+0 -66213-1 0  9998
2 30580  13.1205 331.6154 8366193 192.8930 120.0605  0.87835400 29595
THEMIS D                
1 30797U 07004D   22300.12075563 -.00000276  00000+0  00000+0 0  9997
2 30797   8.9452 320.2398 8321145 207.4821 232.4908  0.87837628 53815
THEMIS E                
1 30798U 07004E   22299.80390355 -.00000306  00000+0  00000+0 0  9993
2 30798   9.9818 334.9047 8313637 194.7631 122.7919  0.87841137 54229
AIM                     
1 31304U 07015A   22300.50769037  .00009652  00000+0  45218-3 0  9992
2 31304  97.8551 224.7958 0002373 296.1251  63.9738 15.19932035851239
FGRST (GLAST)           
1 33053U 08029A   22299.86950268  .00002030  00000+0  96448-4 0  9990
2 33053  25.5837 350.8348 0011526 262.8954  97.0270 15.12580231793617
WISE                    
1 36119U 09071A   22300.13077590  .00006651  00000+0  19628-3 0  9992
2 36119  97.2269 331.9752 0002709 148.0200 212.1209 15.35302869715710
TDRS 11                 
1 39070U 13004A   22300.48429090  .00000087  00000+0  00000+0 0  9993
2 39070   2.8273 350.0042 0003949  78.6234 327.1366  1.00272145 35662
TDRS 12                 
1 39504U 14004A   22300.46484830 -.00000263  00000+0  00000+0 0  9994
2 39504   3.7586 349.7121 0002260 182.7915 349.6764  1.00267152 32123
GPM-CORE                
1 39574U 14009C   22300.52407205  .00011960  00000+0  17135-3 0  9990
2 39574  64.9992  98.7708 0007817 269.3252  90.6999 15.56500577492165
MMS 1                   
1 40482U 15011A   22299.86693682 -.00000203  00000+0  00000+0 0  9992
2 40482  30.4836  95.2111 8820111  63.8381 227.6308  0.28531546 13672
MMS 2                   
1 40483U 15011B   22297.00000000 -.00000136  00000+0  00000+0 0  9998
2 40483  30.4951  95.2885 8825991  63.6980 293.2592  0.28539213 13722
MMS 3                   
1 40484U 15011C   22299.87804793 -.00000204  00000+0  00000+0 0  9993
2 40484  30.4837  95.1759 8820559  63.8529 228.8333  0.28531368 13417
MMS 4                   
1 40485U 15011D   22299.88082571 -.00000205  00000+0  00000+0 0  9998
2 40485  30.4841  95.2181 8822820  63.8152 229.0881  0.28534761 13622
TDRS 13                 
1 42915U 17047A   22299.79936913 -.00000092  00000+0  00000+0 0  9991
2 42915   4.3008 334.7831 0015039 124.7552 212.0058  1.00272124 19042
JPSS-1                  
1 43013U 17073A   22300.52273787  .00000072  00000+0  54852-4 0  9993
2 43013  98.7266 237.0564 0001547  70.1084 290.0259 14.19553670255960
